     2.100          NAVIGATION                              RINEX VERSION / TYPE
fic2rin                                 08/15/2012 00:24:49 PGM / RUN BY / DATE
                                                            END OF HEADER
21 12  8 15  0  0  0.0 -.243219546974D-03 -.250111042988D-11  .000000000000D+00
     .670000000000D+02  .230625000000D+02  .556130307917D-08  .161361308775D+01
     .113435089588D-05  .193151212297D-01  .825338065624D-05  .515357750511D+04
     .259200000000D+06 -.484287738800D-06 -.260526473130D+01 -.391155481339D-07
     .931600222763D+00  .212000000000D+03 -.222683738830D+01 -.856392815055D-08
     .484663045304D-09  .100000000000D+01  .170100000000D+04  .000000000000D+00
     .240000000000D+01  .000000000000D+00 -.111758708954D-07  .670000000000D+02
     .252006000000D+06  .400000000000D+01
22 12  8 15  0  0  0.0  .146523118019D-03  .227373675443D-12  .000000000000D+00
     .270000000000D+02 -.190312500000D+02  .582059959419D-08 -.307126797544D+00
    -.985339283943D-06  .632580509409D-02  .535324215889D-05  .515366682053D+04
     .259200000000D+06 -.353902578354D-07 -.155163146798D+01  .223517417908D-07
     .926394712584D+00  .255656250000D+03 -.200899856688D+01 -.876929384772D-08
    -.450018745087D-09  .100000000000D+01  .170100000000D+04  .000000000000D+00
     .240000000000D+01  .000000000000D+00 -.172294676304D-07  .270000000000D+02
     .252006000000D+06  .400000000000D+01
23 12  8 15  0  0  0.0  .175009015948D-03 -.386535248253D-11  .000000000000D+00
     .530000000000D+02  .332812500000D+02  .423089051929D-08 -.221886673035D+01
     .160932540894D-05  .821213971358D-02  .114608556032D-04  .515360153770D+04
     .259200000000D+06 -.465661287308D-07 -.501302996573D+00 -.838190317154D-07
     .959371332090D+00  .157625000000D+03 -.295601166589D+01 -.774496546604D-08
    -.305727020472D-09  .100000000000D+01  .170100000000D+04  .000000000000D+00
     .240000000000D+01  .000000000000D+00 -.200234353542D-07  .530000000000D+02
     .252006000000D+06  .400000000000D+01
25 12  8 15  0  0  0.0  .397516414523D-04  .102318153949D-11  .000000000000D+00
     .760000000000D+02 -.672812500000D+02  .451340228704D-08  .945403303957D+00
    -.368244946003D-05  .183338194620D-02  .250339508057D-05  .515367442894D+04
     .259200000000D+06 -.130385160446D-07  .157057484392D+01  .391155481339D-07
     .969306522250D+00  .334656250000D+03  .778326098486D+00 -.837499170916D-08
    -.139291516336D-09  .100000000000D+01  .170100000000D+04  .000000000000D+00
     .240000000000D+01  .000000000000D+00  .512227416039D-08  .760000000000D+02
     .252006000000D+06  .400000000000D+01
26 12  8 15  0  0  0.0 -.314568635076D-03  .123918653117D-10  .000000000000D+00
     .450000000000D+02  .634375000000D+02  .360586448444D-08 -.235614946450D+01
     .325590372086D-05  .207671899116D-01  .108368694782D-04  .515366712189D+04
     .259200000000D+06  .230967998505D-06 -.426901743588D+00 -.745058059692D-07
     .982584576774D+00  .180906250000D+03  .120490368722D+01 -.715494088915D-08
    -.208222959036D-09  .100000000000D+01  .170100000000D+04  .000000000000D+00
     .240000000000D+01  .000000000000D+00 -.605359673500D-08  .450000000000D+02
     .252006000000D+06  .400000000000D+01
27 12  8 15  0  0  0.0  .420220196247D-03  .409272615798D-11  .000000000000D+00
     .770000000000D+02  .111406250000D+03  .393087802256D-08 -.152248434083D+01
     .607781112194D-05  .217529897345D-01  .587478280067D-05  .515369880295D+04
     .259200000000D+06 -.366941094398D-06  .496278325013D+00  .240281224251D-06
     .982203466134D+00  .286562500000D+03 -.104800275496D+01 -.809498004555D-08
     .411802867528D-09  .100000000000D+01  .170100000000D+04  .000000000000D+00
     .340000000000D+01  .000000000000D+00 -.419095158577D-08  .770000000000D+02
     .252006000000D+06  .400000000000D+01
28 12  8 15  0  0  0.0  .175258144736D-03  .375166564481D-11  .000000000000D+00
     .380000000000D+02 -.589062500000D+02  .431303679815D-08 -.364972673297D+00
    -.305287539959D-05  .179758222075D-01  .339932739735D-05  .515363258553D+04
     .259200000000D+06 -.180676579475D-06  .163042524806D+01  .176951289177D-06
     .979642009222D+00  .328593750000D+03 -.182254984639D+01 -.849892544293D-08
    -.335728270144D-10  .100000000000D+01  .170100000000D+04  .000000000000D+00
     .240000000000D+01  .000000000000D+00 -.107102096081D-07  .380000000000D+02
     .252006000000D+06  .400000000000D+01
29 12  8 15  0  0  0.0  .344305299222D-03  .420641299570D-11  .000000000000D+00
     .800000000000D+02 -.829687500000D+02  .427124934325D-08  .181192096096D+01
    -.430457293987D-05  .196764338762D-02  .113770365715D-04  .515381202888D+04
     .259200000000D+06  .391155481339D-07  .267234885719D+01  .242143869400D-07
     .964356886684D+00  .166062500000D+03 -.105039315725D+01 -.777603818892D-08
     .172150027883D-09  .100000000000D+01  .170100000000D+04  .000000000000D+00
     .240000000000D+01  .000000000000D+00 -.977888703346D-08  .800000000000D+02
     .252006000000D+06  .400000000000D+01
30 12  8 15  0  0  0.0 -.363321974874D-03 -.259205990005D-10  .000000000000D+00
     .340000000000D+02 -.468750000000D+02  .477805616808D-08 -.111669755804D+01
    -.213086605072D-05  .112288573291D-01  .193342566490D-05  .515369361877D+04
     .259200000000D+06 -.143423676491D-06  .147890186807D+01  .189989805222D-06
     .960500981338D+00  .344093750000D+03  .159401430402D+01 -.862893085818D-08
    -.164292557730D-10  .100000000000D+01  .170100000000D+04  .000000000000D+00
     .685000000000D+01  .000000000000D+00 -.419095158577D-08  .340000000000D+02
     .252006000000D+06  .400000000000D+01
31 12  8 15  0  0  0.0  .267555471510D-03  .261479726760D-11  .000000000000D+00
     .410000000000D+02  .109406250000D+03  .394623580513D-08  .247854024412D+01
     .577978789806D-05  .776888569817D-02  .523589551449D-05  .515370624161D+04
     .259200000000D+06  .335276126862D-07  .551755214134D+00  .167638063431D-07
     .981081132939D+00  .288125000000D+03 -.859726228054D+00 -.787639951223D-08
     .268939773850D-09  .100000000000D+01  .170100000000D+04  .000000000000D+00
     .240000000000D+01  .000000000000D+00 -.135041773319D-07  .410000000000D+02
     .252006000000D+06  .400000000000D+01
32 12  8 15  0  0  0.0 -.476662535220D-03 -.432009983342D-11  .000000000000D+00
     .430000000000D+02 -.224062500000D+02  .500413701382D-08  .305591951733D+01
    -.114180147648D-05  .118157209363D-01  .603683292866D-05  .515359955025D+04
     .259200000000D+06 -.113621354103D-06 -.147452339522D+01  .149011611938D-06
     .950614447833D+00  .257187500000D+03 -.540832172448D+00 -.807890794752D-08
    -.471805366873D-09  .100000000000D+01  .170100000000D+04  .000000000000D+00
     .240000000000D+01  .000000000000D+00 -.325962901115D-08  .430000000000D+02
     .252006000000D+06  .400000000000D+01
20 12  8 14 23 59 44.0  .662747770548D-04  .682121026330D-12  .000000000000D+00
     .300000000000D+02 -.180000000000D+02  .573452458025D-08  .884971849235D+00
    -.959262251854D-06  .493792467751D-02  .514276325703D-05  .515364484596D+04
     .259184000000D+06 -.745058059692D-07 -.160854516355D+01  .372529029846D-07
     .929199275760D+00  .264156250000D+03  .128164665658D+01 -.871214861025D-08
    -.343228582562D-09  .100000000000D+01  .170100000000D+04  .000000000000D+00
     .240000000000D+01  .000000000000D+00 -.791624188423D-08  .300000000000D+02
     .253206000000D+06  .400000000000D+01
16 12  8 14 23 59 44.0 -.243725720793D-03 -.909494701773D-12  .000000000000D+00
     .160000000000D+02 -.698750000000D+02  .423589072757D-08 -.742680981815D-01
    -.350736081600D-05  .655736122280D-02  .237673521042D-05  .515372639847D+04
     .259184000000D+06  .115483999252D-06  .162379326402D+01  .111758708954D-07
     .981262622555D+00  .341687500000D+03  .282987034174D-01 -.831320342115D-08
    -.110361739867D-09  .100000000000D+01  .170100000000D+04  .000000000000D+00
     .240000000000D+01  .000000000000D+00 -.977888703346D-08  .160000000000D+02
     .253326000000D+06  .400000000000D+01
27 12  8 14 23 59 44.0  .420218799263D-03  .409272615798D-11  .000000000000D+00
     .140000000000D+02  .111406250000D+03  .393052086483D-08 -.152481776685D+01
     .607781112194D-05  .217529833317D-01  .587478280067D-05  .515369878387D+04
     .259184000000D+06 -.366941094398D-06  .496278446435D+00  .240281224251D-06
     .982203450042D+00  .286562500000D+03 -.104800287346D+01 -.809498004555D-08
     .411802867528D-09  .100000000000D+01  .170100000000D+04  .000000000000D+00
     .240000000000D+01  .000000000000D+00 -.419095158577D-08  .140000000000D+02
     .253566000000D+06  .400000000000D+01
